{
    "links": {
        "self": "http://www.neowsapp.com/rest/v1/neo/54016589?api_key=iIulBulltgU6a56xZRHN4H3l9WmuAYTsLGpBGhQ2"
    },
    "id": "54016589",
    "neo_reference_id": "54016589",
    "name": "(2020 HO1)",
    "designation": "2020 HO1",
    "nasa_jpl_url": "http://ssd.jpl.nasa.gov/sbdb.cgi?sstr=54016589",
    "absolute_magnitude_h": 26.972,
    "estimated_diameter": {
        "kilometers": {
            "estimated_diameter_min": 0.0107190174,
            "estimated_diameter_max": 0.0239684516
        },
        "meters": {
            "estimated_diameter_min": 10.7190174173,
            "estimated_diameter_max": 23.9684515971
        },
        "miles": {
            "estimated_diameter_min": 0.0066604866,
            "estimated_diameter_max": 0.0148933007
        },
        "feet": {
            "estimated_diameter_min": 35.1673811034,
            "estimated_diameter_max": 78.6366547378
        }
    },
    "is_potentially_hazardous_asteroid": false,
    "close_approach_data": [
        {
            "close_approach_date": "2020-04-21",
            "close_approach_date_full": "2020-Apr-21 20:06",
            "epoch_date_close_approach": 1587499560000,
            "relative_velocity": {
                "kilometers_per_second": "6.0779437556",
                "kilometers_per_hour": "21880.597520003",
                "miles_per_hour": "13595.7523868041"
            },
            "miss_distance": {
                "astronomical": "0.0259097063",
                "lunar": "10.0788757507",
                "kilometers": "3876036.874805581",
                "miles": "2408457.6323397778"
            },
            "orbiting_body": "Earth"
        },
        {
            "close_approach_date": "2041-06-01",
            "close_approach_date_full": "2041-Jun-01 07:27",
            "epoch_date_close_approach": 2253684420000,
            "relative_velocity": {
                "kilometers_per_second": "17.2318718731",
                "kilometers_per_hour": "62034.7387430556",
                "miles_per_hour": "38545.9741928725"
            },
            "miss_distance": {
                "astronomical": "0.3791863216",
                "lunar": "147.5034791024",
                "kilometers": "56725466.044494992",
                "miles": "35247570.1485032096"
            },
            "orbiting_body": "Earth"
        }
    ],
    "orbital_data": {
        "orbit_id": "6",
        "orbit_determination_date": "2020-04-28 07:10:57",
        "first_observation_date": "2020-04-18",
        "last_observation_date": "2020-04-28",
        "data_arc_in_days": 10,
        "observations_used": 56,
        "orbit_uncertainty": "7",
        "minimum_orbit_intersection": ".0197746",
        "jupiter_tisserand_invariant": "4.009",
        "epoch_osculation": "2459000.5",
        "eccentricity": ".4237250647329054",
        "semi_major_axis": "1.759955811458978",
        "inclination": "2.164379058111334",
        "ascending_node_longitude": "43.12069689929384",
        "orbital_period": "852.807620691505",
        "perihelion_distance": "1.01421842132147",
        "perihelion_argument": "151.2021157288306",
        "aphelion_distance": "2.505693201596487",
        "perihelion_time": "2458946.478989853464",
        "mean_anomaly": "22.80416260467248",
        "mean_motion": ".4221350645390475",
        "equinox": "J2000",
        "orbit_class": {
            "orbit_class_type": "APO",
            "orbit_class_description": "Near-Earth asteroid orbits which cross the Earth’s orbit similar to that of 1862 Apollo",
            "orbit_class_range": "a (semi-major axis) > 1.0 AU; q (perihelion) < 1.017 AU"
        }
    },
    "is_sentry_object": false
}